start=new Date('2023-02-16T00:00:00.000Z').valueOf();
sats=[{"APOAPSIS":"548.093","RCS_SIZE":"LARGE","INCLINATION":"53.0514","PERIAPSIS":"546.390","LAUNCH_DATE":"2020-11-25","ELEMENT_SET_NO":"999","MEAN_MOTION_DDOT":"0.0000000000000","OBJECT_ID":"2020-088X","OBJECT_NAME":"STARLINK-1856","TLE_LINE2":"2 47143  53.0514 269.7129 0001230  76.4853 283.6273 15.06390908123495","CLASSIFICATION_TYPE":"U","PERIOD":"95.593","EPOCH":"2023-02-15T20:52:22.704672","MEAN_ELEMENT_THEORY":"SGP4","DECAY_DATE":null,"COUNTRY_CODE":"US","TLE_LINE1":"1 47143U 20088X   23046.86970723  .00015703  00000-0  10710-2 0  9991","SEMIMAJOR_AXIS":"6925.376","ARG_OF_PERICENTER":"76.4853","CENTER_NAME":"EARTH","SITE":"AFETR","MEAN_MOTION":"15.06390908","RA_OF_ASC_NODE":"269.7129","REF_FRAME":"TEME","NORAD_CAT_ID":"47143","EPHEMERIS_TYPE":"0","MEAN_ANOMALY":"283.6273","TIME_SYSTEM":"UTC","BSTAR":"0.00107100000000","OBJECT_TYPE":"PAYLOAD","FILE":"3795153","REV_AT_EPOCH":"12349","GP_ID":"225549213","ECCENTRICITY":"0.00012300","MEAN_MOTION_DOT":"0.00015703"},{"CENTER_NAME":"EARTH","SITE":"AFETR","TLE_LINE1":"1 47144U 20088Y   23046.85586598  .00003372  00000-0  24513-3 0  9990","SEMIMAJOR_AXIS":"6925.335","ARG_OF_PERICENTER":"72.0808","RA_OF_ASC_NODE":"259.7717","REF_FRAME":"TEME","MEAN_MOTION":"15.06404498","OBJECT_TYPE":"PAYLOAD","FILE":"3795153","REV_AT_EPOCH":"12363","EPHEMERIS_TYPE":"0","NORAD_CAT_ID":"47144","TIME_SYSTEM":"UTC","MEAN_ANOMALY":"288.0339","BSTAR":"0.00024513000000","ECCENTRICITY":"0.00014530","GP_ID":"225549956","MEAN_MOTION_DOT":"0.00003372","INCLINATION":"53.0531","PERIAPSIS":"546.194","APOAPSIS":"548.206","RCS_SIZE":"LARGE","MEAN_MOTION_DDOT":"0.0000000000000","OBJECT_ID":"2020-088Y","LAUNCH_DATE":"2020-11-25","ELEMENT_SET_NO":"999","PERIOD":"95.592","EPOCH":"2023-02-15T20:32:26.820672","OBJECT_NAME":"STARLINK-1857","TLE_LINE2":"2 47144  53.0531 259.7717 0001453  72.0808 288.0339 15.06404498123634","CLASSIFICATION_TYPE":"U","DECAY_DATE":null,"COUNTRY_CODE":"US","MEAN_ELEMENT_THEORY":"SGP4"},{"ELEMENT_SET_NO":"999","LAUNCH_DATE":"2020-11-25","OBJECT_ID":"2020-088AB","MEAN_MOTION_DDOT":"0.0000000000000","APOAPSIS":"548.174","RCS_SIZE":"LARGE","PERIAPSIS":"546.264","INCLINATION":"53.0537","MEAN_ELEMENT_THEORY":"SGP4","COUNTRY_CODE":"US","DECAY_DATE":null,"CLASSIFICATION_TYPE":"U","TLE_LINE2":"2 47147  53.0537 279.6570 0001379 103.0005 257.1138 15.06398313123364","OBJECT_NAME":"STARLINK-1860","EPOCH":"2023-02-15T21:06:56.287296","PERIOD":"95.592","MEAN_MOTION":"15.06398313","REF_FRAME":"TEME","RA_OF_ASC_NODE":"279.6570","ARG_OF_PERICENTER":"103.0005","SEMIMAJOR_AXIS":"6925.354","TLE_LINE1":"1 47147U 20088AB  23046.87981814  .00001648  00000-0  12950-3 0  9991","SITE":"AFETR","CENTER_NAME":"EARTH","MEAN_MOTION_DOT":"0.00001648","ECCENTRICITY":"0.00013790","GP_ID":"225550465","BSTAR":"0.00012950000000","EPHEMERIS_TYPE":"0","NORAD_CAT_ID":"47147","MEAN_ANOMALY":"257.1138","TIME_SYSTEM":"UTC","REV_AT_EPOCH":"12336","FILE":"3795153","OBJECT_TYPE":"PAYLOAD"},{"BSTAR":"-0.00003925000000","NORAD_CAT_ID":"47148","EPHEMERIS_TYPE":"0","MEAN_ANOMALY":"266.9295","TIME_SYSTEM":"UTC","REV_AT_EPOCH":"12350","FILE":"3795153","OBJECT_TYPE":"PAYLOAD","MEAN_MOTION_DOT":"-0.00000866","GP_ID":"225548967","ECCENTRICITY":"0.00010020","ARG_OF_PERICENTER":"93.1808","SEMIMAJOR_AXIS":"6925.319","TLE_LINE1":"1 47148U 20088AC  23046.92128637 -.00000866  00000-0 -39250-4 0  9990","SITE":"AFETR","CENTER_NAME":"EARTH","MEAN_MOTION":"15.06409567","REF_FRAME":"TEME","RA_OF_ASC_NODE":"269.4731","TLE_LINE2":"2 47148  53.0531 269.4731 0001002  93.1808 266.9295 15.06409567123500","CLASSIFICATION_TYPE":"U","OBJECT_NAME":"STARLINK-1861","EPOCH":"2023-02-15T22:06:39.142368","PERIOD":"95.592","MEAN_ELEMENT_THEORY":"SGP4","COUNTRY_CODE":"US","DECAY_DATE":null,"APOAPSIS":"547.878","RCS_SIZE":"LARGE","PERIAPSIS":"546.490","INCLINATION":"53.0531","ELEMENT_SET_NO":"999","LAUNCH_DATE":"2020-11-25","OBJECT_ID":"2020-088AC","MEAN_MOTION_DDOT":"0.0000000000000"},{"PERIOD":"95.592","EPOCH":"2023-02-15T21:12:15.288192","OBJECT_NAME":"STARLINK-1862","CLASSIFICATION_TYPE":"U","TLE_LINE2":"2 47149  53.0539 279.6512 0001473 101.4318 258.6837 15.06408355124099","COUNTRY_CODE":"US","DECAY_DATE":null,"MEAN_ELEMENT_THEORY":"SGP4","PERIAPSIS":"546.168","INCLINATION":"53.0539","APOAPSIS":"548.208","RCS_SIZE":"LARGE","OBJECT_ID":"2020-088AD","MEAN_MOTION_DDOT":"0.0000000000000","ELEMENT_SET_NO":"999","LAUNCH_DATE":"2020-11-25","REV_AT_EPOCH":"12409","OBJECT_TYPE":"PAYLOAD","FILE":"3795153","BSTAR":"0.00031252000000","EPHEMERIS_TYPE":"0","NORAD_CAT_ID":"47149","MEAN_ANOMALY":"258.6837","TIME_SYSTEM":"UTC","MEAN_MOTION_DOT":"0.00004378","GP_ID":"225549707","ECCENTRICITY":"0.00014730","SITE":"AFETR","CENTER_NAME":"EARTH","SEMIMAJOR_AXIS":"6925.323","ARG_OF_PERICENTER":"101.4318","TLE_LINE1":"1 47149U 20088AD  23046.88351028  .00004378  00000-0  31252-3 0  9991","REF_FRAME":"TEME","RA_OF_ASC_NODE":"279.6512","MEAN_MOTION":"15.06408355"},{"ECCENTRICITY":"0.00009670","GP_ID":"225550450","MEAN_MOTION_DOT":"0.00002364","MEAN_ANOMALY":"274.6543","NORAD_CAT_ID":"47150","EPHEMERIS_TYPE":"0","TIME_SYSTEM":"UTC","BSTAR":"0.00017750000000","FILE":"3795153","OBJECT_TYPE":"PAYLOAD","REV_AT_EPOCH":"12350","MEAN_MOTION":"15.06408858","RA_OF_ASC_NODE":"269.6738","REF_FRAME":"TEME","TLE_LINE1":"1 47150U 20088AE  23046.87706004  .00002364  00000-0  17750-3 0  9990","ARG_OF_PERICENTER":"85.4556","SEMIMAJOR_AXIS":"6925.321","CENTER_NAME":"EARTH","SITE":"AFETR","MEAN_ELEMENT_THEORY":"SGP4","DECAY_DATE":null,"COUNTRY_CODE":"US","TLE_LINE2":"2 47150  53.0524 269.6738 0000967  85.4556 274.6543 15.06408858123501","CLASSIFICATION_TYPE":"U","OBJECT_NAME":"STARLINK-1863","EPOCH":"2023-02-15T21:02:57.987456","PERIOD":"95.592","LAUNCH_DATE":"2020-11-25","ELEMENT_SET_NO":"999","MEAN_MOTION_DDOT":"0.0000000000000","OBJECT_ID":"2020-088AE","RCS_SIZE":"LARGE","APOAPSIS":"547.856","INCLINATION":"53.0524","PERIAPSIS":"546.517"},{"ECCENTRICITY":"0.00012000","GP_ID":"225549972","MEAN_MOTION_DOT":"0.00003848","NORAD_CAT_ID":"47151","TIME_SYSTEM":"UTC","EPHEMERIS_TYPE":"0","MEAN_ANOMALY":"263.6715","BSTAR":"0.00027704000000","FILE":"3795153","OBJECT_TYPE":"PAYLOAD","REV_AT_EPOCH":"12335","MEAN_MOTION":"15.06409372","RA_OF_ASC_NODE":"279.6856","REF_FRAME":"TEME","TLE_LINE1":"1 47151U 20088AF  23046.87613828  .00003848  00000-0  27704-3 0  9990","ARG_OF_PERICENTER":"96.4411","SEMIMAJOR_AXIS":"6925.320","CENTER_NAME":"EARTH","SITE":"AFETR","MEAN_ELEMENT_THEORY":"SGP4","DECAY_DATE":null,"COUNTRY_CODE":"US","CLASSIFICATION_TYPE":"U","TLE_LINE2":"2 47151  53.0555 279.6856 0001200  96.4411 263.6715 15.06409372123355","OBJECT_NAME":"STARLINK-1864","EPOCH":"2023-02-15T21:01:38.347392","PERIOD":"95.592","LAUNCH_DATE":"2020-11-25","ELEMENT_SET_NO":"999","MEAN_MOTION_DDOT":"0.0000000000000","OBJECT_ID":"2020-088AF","APOAPSIS":"548.016","RCS_SIZE":"LARGE","INCLINATION":"53.0555","PERIAPSIS":"546.354"},{"MEAN_ELEMENT_THEORY":"SGP4","DECAY_DATE":null,"COUNTRY_CODE":"US","OBJECT_NAME":"STARLINK-1866","CLASSIFICATION_TYPE":"U","TLE_LINE2":"2 47152  53.0540 279.4409 0001105  77.1078 283.0034 15.06415427123360","PERIOD":"95.591","EPOCH":"2023-02-15T22:14:35.202912","LAUNCH_DATE":"2020-11-25","ELEMENT_SET_NO":"999","MEAN_MOTION_DDOT":"0.0000000000000","OBJECT_ID":"2020-088AG","RCS_SIZE":"LARGE","APOAPSIS":"547.932","INCLINATION":"53.0540","PERIAPSIS":"546.401","GP_ID":"225549461","ECCENTRICITY":"0.00011050","MEAN_MOTION_DOT":"0.00011083","TIME_SYSTEM":"UTC","NORAD_CAT_ID":"47152","EPHEMERIS_TYPE":"0","MEAN_ANOMALY":"283.0034","BSTAR":"0.00076141000000","OBJECT_TYPE":"PAYLOAD","FILE":"3795153","REV_AT_EPOCH":"12336","MEAN_MOTION":"15.06415427","RA_OF_ASC_NODE":"279.4409","REF_FRAME":"TEME","TLE_LINE1":"1 47152U 20088AG  23046.92679633  .00011083  00000-0  76141-3 0  9992","SEMIMAJOR_AXIS":"6925.301","ARG_OF_PERICENTER":"77.1078","CENTER_NAME":"EARTH","SITE":"AFETR"},{"NORAD_CAT_ID":"47153","EPHEMERIS_TYPE":"0","MEAN_ANOMALY":"280.4842","TIME_SYSTEM":"UTC","BSTAR":"0.00182810000000","FILE":"3795153","OBJECT_TYPE":"PAYLOAD","REV_AT_EPOCH":"12329","ECCENTRICITY":"0.00015240","GP_ID":"225549214","MEAN_MOTION_DOT":"0.00027084","TLE_LINE1":"1 47153U 20088AH  23046.92547552  .00027084  00000-0  18281-2 0  9995","ARG_OF_PERICENTER":"79.6319","SEMIMAJOR_AXIS":"6925.219","CENTER_NAME":"EARTH","SITE":"AFETR","MEAN_MOTION":"15.06442239","RA_OF_ASC_NODE":"284.7036","REF_FRAME":"TEME","CLASSIFICATION_TYPE":"U","TLE_LINE2":"2 47153  53.0527 284.7036 0001524  79.6319 280.4842 15.06442239123292","OBJECT_NAME":"STARLINK-1867","EPOCH":"2023-02-15T22:12:41.084928","PERIOD":"95.589","MEAN_ELEMENT_THEORY":"SGP4","DECAY_DATE":null,"COUNTRY_CODE":"US","APOAPSIS":"548.140","RCS_SIZE":"LARGE","INCLINATION":"53.0527","PERIAPSIS":"546.029","LAUNCH_DATE":"2020-11-25","ELEMENT_SET_NO":"999","MEAN_MOTION_DDOT":"0.0000000000000","OBJECT_ID":"2020-088AH"},{"SITE":"AFETR","CENTER_NAME":"EARTH","SEMIMAJOR_AXIS":"6925.309","ARG_OF_PERICENTER":"74.6438","TLE_LINE1":"1 47154U 20088AJ  23046.89917476  .00007628  00000-0  53027-3 0  9998","REF_FRAME":"TEME","RA_OF_ASC_NODE":"269.5715","MEAN_MOTION":"15.06412752","REV_AT_EPOCH":"12350","OBJECT_TYPE":"PAYLOAD","FILE":"3795153","BSTAR":"0.00053027000000","NORAD_CAT_ID":"47154","EPHEMERIS_TYPE":"0","TIME_SYSTEM":"UTC","MEAN_ANOMALY":"285.4668","MEAN_MOTION_DOT":"0.00007628","ECCENTRICITY":"0.00010650","GP_ID":"225549957","PERIAPSIS":"546.437","INCLINATION":"53.0530","APOAPSIS":"547.912","RCS_SIZE":"LARGE","OBJECT_ID":"2020-088AJ","MEAN_MOTION_DDOT":"0.0000000000000","ELEMENT_SET_NO":"999","LAUNCH_DATE":"2020-11-25","PERIOD":"95.591","EPOCH":"2023-02-15T21:34:48.699264","OBJECT_NAME":"STARLINK-1868","TLE_LINE2":"2 47154  53.0530 269.5715 0001065  74.6438 285.4668 15.06412752123501","CLASSIFICATION_TYPE":"U","COUNTRY_CODE":"US","DECAY_DATE":null,"MEAN_ELEMENT_THEORY":"SGP4"}];
